start=new Date('2022-09-13T00:00:00.000Z').valueOf();
sats=[{"SITE":"AFETR","ELEMENT_SET_NO":"999","PERIAPSIS":"538.512","CENTER_NAME":"EARTH","REV_AT_EPOCH":"130","SEMIMAJOR_AXIS":"6917.945","TLE_LINE2":"2 52682  53.2137 102.3035 0001875  50.7496  84.1950 15.08819013  1309","DECAY_DATE":null,"REF_FRAME":"TEME","OBJECT_ID":"2022-053AC","EPHEMERIS_TYPE":"0","RCS_SIZE":"MEDIUM","TLE_LINE1":"1 52682U 22053AC  22255.91667824  .00017030  00000-0  10861-2 0  9993","NORAD_CAT_ID":"52682","FILE":"3570509","APOAPSIS":"541.107","LAUNCH_DATE":"2022-05-18","OBJECT_TYPE":"PAYLOAD","BSTAR":"0.00108610000000","EPOCH":"2022-09-12T22:00:00.999936","RA_OF_ASC_NODE":"102.3035","PERIOD":"95.439","MEAN_MOTION_DOT":"0.00017030","ARG_OF_PERICENTER":"50.7496","MEAN_ANOMALY":"84.1950","MEAN_MOTION_DDOT":"0.0000000000000","TIME_SYSTEM":"UTC","GP_ID":"212434729","MEAN_ELEMENT_THEORY":"SGP4","INCLINATION":"53.2137","CLASSIFICATION_TYPE":"U","ECCENTRICITY":"0.00018750","MEAN_MOTION":"15.08819013","OBJECT_NAME":"STARLINK-4017","COUNTRY_CODE":"US"},{"MEAN_ELEMENT_THEORY":"SGP4","INCLINATION":"53.2150","GP_ID":"212405228","TIME_SYSTEM":"UTC","MEAN_MOTION_DDOT":"0.0000000000000","COUNTRY_CODE":"US","OBJECT_NAME":"STARLINK-4039","ECCENTRICITY":"0.00017620","MEAN_MOTION":"15.08842915","CLASSIFICATION_TYPE":"U","RA_OF_ASC_NODE":"102.3035","EPOCH":"2022-09-12T22:00:00.999936","MEAN_ANOMALY":"179.5897","ARG_OF_PERICENTER":"55.3375","PERIOD":"95.437","MEAN_MOTION_DOT":"0.00010792","NORAD_CAT_ID":"52683","FILE":"3570329","RCS_SIZE":"LARGE","TLE_LINE1":"1 52683U 22053AD  22255.91667824  .00010792  00000-0  69505-3 0  9992","BSTAR":"0.00069505000000","LAUNCH_DATE":"2022-05-18","OBJECT_TYPE":"PAYLOAD","APOAPSIS":"540.955","CENTER_NAME":"EARTH","REV_AT_EPOCH":"1845","SEMIMAJOR_AXIS":"6917.871","ELEMENT_SET_NO":"999","SITE":"AFETR","PERIAPSIS":"538.518","EPHEMERIS_TYPE":"0","OBJECT_ID":"2022-053AD","DECAY_DATE":null,"REF_FRAME":"TEME","TLE_LINE2":"2 52683  53.2150 102.3035 0001762  55.3375 179.5897 15.08842915 18457"},{"APOAPSIS":"540.985","OBJECT_TYPE":"PAYLOAD","LAUNCH_DATE":"2022-05-18","BSTAR":"0.00113640000000","RCS_SIZE":"LARGE","TLE_LINE1":"1 52684U 22053AE  22255.91667824  .00017834  00000-0  11364-2 0  9996","FILE":"3570509","NORAD_CAT_ID":"52684","TLE_LINE2":"2 52684  53.2146 102.3059 0001704  58.0102  96.9125 15.08820112  1300","DECAY_DATE":null,"REF_FRAME":"TEME","OBJECT_ID":"2022-053AE","EPHEMERIS_TYPE":"0","ELEMENT_SET_NO":"999","SITE":"AFETR","PERIAPSIS":"538.627","REV_AT_EPOCH":"130","CENTER_NAME":"EARTH","SEMIMAJOR_AXIS":"6917.941","CLASSIFICATION_TYPE":"U","ECCENTRICITY":"0.00017040","MEAN_MOTION":"15.08820112","OBJECT_NAME":"STARLINK-4014","COUNTRY_CODE":"US","MEAN_MOTION_DDOT":"0.0000000000000","TIME_SYSTEM":"UTC","GP_ID":"212433933","INCLINATION":"53.2146","MEAN_ELEMENT_THEORY":"SGP4","PERIOD":"95.439","MEAN_MOTION_DOT":"0.00017834","ARG_OF_PERICENTER":"58.0102","MEAN_ANOMALY":"96.9125","EPOCH":"2022-09-12T22:00:00.999936","RA_OF_ASC_NODE":"102.3059"},{"OBJECT_NAME":"STARLINK-4029","COUNTRY_CODE":"US","CLASSIFICATION_TYPE":"U","ECCENTRICITY":"0.00018510","MEAN_MOTION":"15.08828552","GP_ID":"212408163","MEAN_ELEMENT_THEORY":"SGP4","INCLINATION":"53.2164","MEAN_MOTION_DDOT":"0.0000000000000","TIME_SYSTEM":"UTC","ARG_OF_PERICENTER":"56.4233","MEAN_ANOMALY":"218.5068","PERIOD":"95.438","MEAN_MOTION_DOT":"0.00020449","EPOCH":"2022-09-12T22:00:00.999936","RA_OF_ASC_NODE":"102.2962","LAUNCH_DATE":"2022-05-18","OBJECT_TYPE":"PAYLOAD","BSTAR":"0.00129960000000","APOAPSIS":"541.061","NORAD_CAT_ID":"52685","FILE":"3570442","RCS_SIZE":"LARGE","TLE_LINE1":"1 52685U 22053AF  22255.91667824  .00020449  00000-0  12996-2 0  9995","OBJECT_ID":"2022-053AF","EPHEMERIS_TYPE":"0","TLE_LINE2":"2 52685  53.2164 102.2962 0001851  56.4233 218.5068 15.08828552 18451","DECAY_DATE":null,"REF_FRAME":"TEME","REV_AT_EPOCH":"1845","CENTER_NAME":"EARTH","SEMIMAJOR_AXIS":"6917.915","ELEMENT_SET_NO":"999","SITE":"AFETR","PERIAPSIS":"538.500"},{"ELEMENT_SET_NO":"999","SITE":"AFETR","PERIAPSIS":"538.627","CENTER_NAME":"EARTH","REV_AT_EPOCH":"1845","SEMIMAJOR_AXIS":"6917.912","DECAY_DATE":null,"REF_FRAME":"TEME","TLE_LINE2":"2 52686  53.2154 102.3060 0001662  53.5289 161.3889 15.08829599 18458","OBJECT_ID":"2022-053AG","EPHEMERIS_TYPE":"0","RCS_SIZE":"LARGE","TLE_LINE1":"1 52686U 22053AG  22255.91667824  .00019362  00000-0  12316-2 0  9994","NORAD_CAT_ID":"52686","FILE":"3570329","APOAPSIS":"540.927","BSTAR":"0.00123160000000","LAUNCH_DATE":"2022-05-18","OBJECT_TYPE":"PAYLOAD","RA_OF_ASC_NODE":"102.3060","EPOCH":"2022-09-12T22:00:00.999936","PERIOD":"95.438","MEAN_MOTION_DOT":"0.00019362","MEAN_ANOMALY":"161.3889","ARG_OF_PERICENTER":"53.5289","TIME_SYSTEM":"UTC","MEAN_MOTION_DDOT":"0.0000000000000","INCLINATION":"53.2154","MEAN_ELEMENT_THEORY":"SGP4","GP_ID":"212405227","ECCENTRICITY":"0.00016620","MEAN_MOTION":"15.08829599","CLASSIFICATION_TYPE":"U","COUNTRY_CODE":"US","OBJECT_NAME":"STARLINK-4005"},{"EPOCH":"2022-09-12T22:00:00.999936","RA_OF_ASC_NODE":"102.2982","MEAN_MOTION_DOT":"-0.00026162","PERIOD":"95.437","ARG_OF_PERICENTER":"47.9268","MEAN_ANOMALY":"247.0005","MEAN_MOTION_DDOT":"0.0000000000000","TIME_SYSTEM":"UTC","GP_ID":"212405167","MEAN_ELEMENT_THEORY":"SGP4","INCLINATION":"53.2174","CLASSIFICATION_TYPE":"U","MEAN_MOTION":"15.08848927","ECCENTRICITY":"0.00019330","OBJECT_NAME":"STARLINK-3981","COUNTRY_CODE":"US","PERIAPSIS":"538.381","ELEMENT_SET_NO":"999","SITE":"AFETR","SEMIMAJOR_AXIS":"6917.853","REV_AT_EPOCH":"1845","CENTER_NAME":"EARTH","TLE_LINE2":"2 52687  53.2174 102.2982 0001933  47.9268 247.0005 15.08848927 18456","DECAY_DATE":null,"REF_FRAME":"TEME","EPHEMERIS_TYPE":"0","OBJECT_ID":"2022-053AH","TLE_LINE1":"1 52687U 22053AH  22255.91667824 -.00026162  00000-0 -16312-2 0  9993","RCS_SIZE":"LARGE","NORAD_CAT_ID":"52687","FILE":"3570329","APOAPSIS":"541.055","LAUNCH_DATE":"2022-05-18","OBJECT_TYPE":"PAYLOAD","BSTAR":"-0.00163120000000"},{"ELEMENT_SET_NO":"999","SITE":"AFETR","PERIAPSIS":"538.471","REV_AT_EPOCH":"1845","CENTER_NAME":"EARTH","SEMIMAJOR_AXIS":"6917.935","TLE_LINE2":"2 52688  53.2163 102.2965 0001921  48.0099 201.7103 15.08822019 18457","DECAY_DATE":null,"REF_FRAME":"TEME","OBJECT_ID":"2022-053AJ","EPHEMERIS_TYPE":"0","RCS_SIZE":"LARGE","TLE_LINE1":"1 52688U 22053AJ  22255.91667824  .00019850  00000-0  12624-2 0  9990","FILE":"3570474","NORAD_CAT_ID":"52688","APOAPSIS":"541.129","LAUNCH_DATE":"2022-05-18","OBJECT_TYPE":"PAYLOAD","BSTAR":"0.00126240000000","EPOCH":"2022-09-12T22:00:00.999936","RA_OF_ASC_NODE":"102.2965","PERIOD":"95.439","MEAN_MOTION_DOT":"0.00019850","ARG_OF_PERICENTER":"48.0099","MEAN_ANOMALY":"201.7103","MEAN_MOTION_DDOT":"0.0000000000000","TIME_SYSTEM":"UTC","GP_ID":"212408573","INCLINATION":"53.2163","MEAN_ELEMENT_THEORY":"SGP4","CLASSIFICATION_TYPE":"U","ECCENTRICITY":"0.00019210","MEAN_MOTION":"15.08822019","OBJECT_NAME":"STARLINK-4032","COUNTRY_CODE":"US"},{"ARG_OF_PERICENTER":"47.6666","MEAN_ANOMALY":"307.2302","MEAN_MOTION_DOT":"0.00025012","PERIOD":"95.439","EPOCH":"2022-09-12T22:00:00.999936","RA_OF_ASC_NODE":"102.3027","OBJECT_NAME":"STARLINK-4078","COUNTRY_CODE":"US","CLASSIFICATION_TYPE":"U","MEAN_MOTION":"15.08813392","ECCENTRICITY":"0.00016600","GP_ID":"212434067","INCLINATION":"53.2176","MEAN_ELEMENT_THEORY":"SGP4","MEAN_MOTION_DDOT":"0.0000000000000","TIME_SYSTEM":"UTC","EPHEMERIS_TYPE":"0","OBJECT_ID":"2022-053AK","TLE_LINE2":"2 52689  53.2176 102.3027 0001660  47.6666 307.2302 15.08813392  1300","REF_FRAME":"TEME","DECAY_DATE":null,"SEMIMAJOR_AXIS":"6917.962","CENTER_NAME":"EARTH","REV_AT_EPOCH":"130","PERIAPSIS":"538.678","ELEMENT_SET_NO":"999","SITE":"AFETR","OBJECT_TYPE":"PAYLOAD","LAUNCH_DATE":"2022-05-18","BSTAR":"0.00158520000000","APOAPSIS":"540.975","FILE":"3570509","NORAD_CAT_ID":"52689","TLE_LINE1":"1 52689U 22053AK  22255.91667824  .00025012  00000-0  15852-2 0  9994","RCS_SIZE":"LARGE"},{"DECAY_DATE":null,"REF_FRAME":"TEME","TLE_LINE2":"2 52690  53.2172 102.2996 0001808  60.0728 194.8494 15.08822380  1303","EPHEMERIS_TYPE":"0","OBJECT_ID":"2022-053AL","PERIAPSIS":"538.548","ELEMENT_SET_NO":"999","SITE":"AFETR","SEMIMAJOR_AXIS":"6917.934","REV_AT_EPOCH":"130","CENTER_NAME":"EARTH","APOAPSIS":"541.050","BSTAR":"0.00128300000000","LAUNCH_DATE":"2022-05-18","OBJECT_TYPE":"PAYLOAD","TLE_LINE1":"1 52690U 22053AL  22255.91667824  .00020180  00000-0  12830-2 0  9990","RCS_SIZE":"LARGE","FILE":"3570509","NORAD_CAT_ID":"52690","MEAN_MOTION_DOT":"0.00020180","PERIOD":"95.439","MEAN_ANOMALY":"194.8494","ARG_OF_PERICENTER":"60.0728","RA_OF_ASC_NODE":"102.2996","EPOCH":"2022-09-12T22:00:00.999936","MEAN_MOTION":"15.08822380","ECCENTRICITY":"0.00018080","CLASSIFICATION_TYPE":"U","COUNTRY_CODE":"US","OBJECT_NAME":"STARLINK-4035","TIME_SYSTEM":"UTC","MEAN_MOTION_DDOT":"0.0000000000000","INCLINATION":"53.2172","MEAN_ELEMENT_THEORY":"SGP4","GP_ID":"212434730"},{"EPOCH":"2022-09-12T22:00:00.999936","RA_OF_ASC_NODE":"102.2987","ARG_OF_PERICENTER":"55.3305","MEAN_ANOMALY":"319.4902","PERIOD":"95.439","MEAN_MOTION_DOT":"0.00016116","GP_ID":"212405187","INCLINATION":"53.2167","MEAN_ELEMENT_THEORY":"SGP4","MEAN_MOTION_DDOT":"0.0000000000000","TIME_SYSTEM":"UTC","OBJECT_NAME":"STARLINK-3945","COUNTRY_CODE":"US","CLASSIFICATION_TYPE":"U","ECCENTRICITY":"0.00017490","MEAN_MOTION":"15.08823994","REV_AT_EPOCH":"1845","CENTER_NAME":"EARTH","SEMIMAJOR_AXIS":"6917.929","ELEMENT_SET_NO":"999","SITE":"AFETR","PERIAPSIS":"538.584","OBJECT_ID":"2022-053AM","EPHEMERIS_TYPE":"0","TLE_LINE2":"2 52691  53.2167 102.2987 0001749  55.3305 319.4902 15.08823994 18455","DECAY_DATE":null,"REF_FRAME":"TEME","FILE":"3570330","NORAD_CAT_ID":"52691","RCS_SIZE":"LARGE","TLE_LINE1":"1 52691U 22053AM  22255.91667824  .00016116  00000-0  10288-2 0  9990","LAUNCH_DATE":"2022-05-18","OBJECT_TYPE":"PAYLOAD","BSTAR":"0.00102880000000","APOAPSIS":"541.004"}];
